ORBCOMM FM115 [+]       
1 41186U 15081H   24018.89377450  .00001748  00000+0  39379-3 0  9996
2 41186  46.9995 325.9179 0001092 259.4781 100.5982 14.60282051432405
ORBCOMM FM108 [+]       
1 41187U 15081J   24018.96697396  .00001920  00000+0  46787-3 0  9992
2 41187  47.0055  16.3358 0001414 101.1008 259.0036 14.56192494431739
ORBCOMM FM117 [+]       
1 41188U 15081K   24019.34462822  .00001990  00000+0  48347-3 0  9991
2 41188  47.0025  13.4913 0001969 127.9941 232.1122 14.56198689431807
ORBCOMM FM116 [+]       
1 41189U 15081L   24018.64798237  .00002019  00000+0  49007-3 0  9993
2 41189  47.0009 106.5836 0003940 225.1123 134.9442 14.56194723430462
